NORAD_CAT_ID,OBJECT_NAME,OBJECT_TYPE,EPOCH,MEAN_MOTION,ECCENTRICITY,INCLINATION,RA_OF_ASC_NODE,ARG_OF_PERICENTER,MEAN_ANOMALY,BSTAR,MEAN_MOTION_DOT,MEAN_MOTION_DDOT,TLE_LINE0,TLE_LINE1,TLE_LINE2,SEMIMAJOR_AXIS,PERIOD,APOGEE,PERIGEE,DECAYED
53896.0,STARLINK-5037,PAYLOAD,2024-01-07 21:36:54,15.08839954,0.0001384,53.2173,278.4383,93.0868,267.0283,3.6488e-05,2.93e-06,0.0,0 STARLINK-5037,1 53896U 22119L   24007.90063110  .00000293  00000-0  36488-4 0  9996,2 53896  53.2173 278.4383 0001384  93.0868 267.0283 15.08839954 72154,6917.881,95.438,540.703,538.788,0.0
53896.0,STARLINK-5037,PAYLOAD,2024-01-08 03:58:26,15.08842798,0.0001417,53.2171,277.2488,93.565,266.5504,5.8196e-05,6.38e-06,0.0,0 STARLINK-5037,1 53896U 22119L   24008.16558846  .00000638  00000-0  58196-4 0  9993,2 53896  53.2171 277.2488 0001417  93.5650 266.5504 15.08842798 72190,6917.872,95.437,540.717,538.757,0.0
53896.0,STARLINK-5037,PAYLOAD,2024-01-08 19:52:18,15.08834265,0.0001458,53.2174,274.2739,100.96,259.1557,2.591e-05,1.24e-06,0.0,0 STARLINK-5037,1 53896U 22119L   24008.82799625  .00000124  00000-0  25910-4 0  9996,2 53896  53.2174 274.2739 0001458 100.9600 259.1557 15.08834265 71872,6917.898,95.438,540.772,538.754,0.0
53896.0,STARLINK-5037,PAYLOAD,2024-01-08 21:27:41,15.08835202,0.0001438,53.2173,273.9767,99.7938,260.3217,3.0695e-05,2.01e-06,0.0,0 STARLINK-5037,1 53896U 22119L   24008.89423575  .00000201  00000-0  30695-4 0  9993,2 53896  53.2173 273.9767 0001438  99.7938 260.3217 15.08835202 72303,6917.895,95.438,540.755,538.765,0.0
53896.0,STARLINK-5037,PAYLOAD,2024-01-09 03:49:14,15.08837672,0.0001442,53.2172,272.7872,98.5222,261.5933,4.8869e-05,4.9e-06,0.0,0 STARLINK-5037,1 53896U 22119L   24009.15919420  .00000490  00000-0  48869-4 0  9994,2 53896  53.2172 272.7872 0001442  98.5222 261.5933 15.08837672 72349,6917.888,95.438,540.75,538.755,0.0
53896.0,STARLINK-5037,PAYLOAD,2024-01-09 21:18:28,15.0884264,0.0001445,53.2174,269.5158,99.6213,260.4942,6.2541e-05,7.08e-06,0.0,0 STARLINK-5037,1 53896U 22119L   24009.88783133  .00000708  00000-0  62541-4 0  9999,2 53896  53.2174 269.5158 0001445  99.6213 260.4942 15.08842640 72458,6917.872,95.437,540.737,538.738,0.0
53896.0,STARLINK-5037,PAYLOAD,2024-01-10 03:40:00,15.08846669,0.0001448,53.2173,268.3265,94.9131,265.2027,9.3887e-05,1.207e-05,0.0,0 STARLINK-5037,1 53896U 22119L   24010.15278764  .00001207  00000-0  93887-4 0  9992,2 53896  53.2173 268.3265 0001448  94.9131 265.2027 15.08846669 72073,6917.86,95.437,540.727,538.723,0.0
53896.0,STARLINK-5037,PAYLOAD,2024-01-10 16:23:06,15.0883452,0.0001648,53.2173,265.9478,108.363,251.7541,4.1745e-05,3.76e-06,0.0,0 STARLINK-5037,1 53896U 22119L   24010.68271774  .00000376  00000-0  41745-4 0  9996,2 53896  53.2173 265.9478 0001648 108.3630 251.7541 15.08834520 72151,6917.897,95.438,540.902,538.622,0.0
53896.0,STARLINK-5037,PAYLOAD,2024-01-11 00:20:02,15.08839986,0.0001381,53.2168,264.4624,91.4376,268.6774,5.0913e-05,5.22e-06,0.0,0 STARLINK-5037,1 53896U 22119L   24011.01391573  .00000522  00000-0  50913-4 0  9994,2 53896  53.2168 264.4624 0001381  91.4376 268.6774 15.08839986 72623,6917.88,95.438,540.701,538.79,0.0
53896.0,STARLINK-5037,PAYLOAD,2024-01-11 21:00:03,15.08843864,0.0001341,53.2164,260.5986,86.0628,274.0518,1.4662e-05,-5.5e-07,0.0,0 STARLINK-5037,1 53896U 22119L   24011.87503621 -.00000055  00000-0  14662-4 0  9990,2 53896  53.2164 260.5986 0001341  86.0628 274.0518 15.08843864 72754,6917.869,95.437,540.661,538.806,0.0
53896.0,STARLINK-5037,PAYLOAD,2024-01-12 01:46:11,15.08851676,0.0001418,53.2165,259.7059,85.0418,275.0736,9.3224e-05,1.196e-05,0.0,0 STARLINK-5037,1 53896U 22119L   24012.07374928  .00001196  00000-0  93224-4 0  9996,2 53896  53.2165 259.7059 0001418  85.0418 275.0736 15.08851676 72367,6917.845,95.437,540.691,538.729,0.0
53896.0,STARLINK-5037,PAYLOAD,2024-01-12 22:26:13,15.08835258,0.00015,53.2167,255.8396,105.2026,254.9132,4.5367e-05,4.34e-06,0.0,0 STARLINK-5037,1 53896U 22119L   24012.93488272  .00000434  00000-0  45367-4 0  9998,2 53896  53.2167 255.8396 0001500 105.2026 254.9132 15.08835258 72917,6917.895,95.438,540.798,538.722,0.0
53896.0,STARLINK-5037,PAYLOAD,2024-01-13 01:37:00,15.08838591,0.0001461,53.2167,255.2412,107.2212,252.894,3.3709e-05,2.49e-06,0.0,0 STARLINK-5037,1 53896U 22119L   24013.06736120  .00000249  00000-0  33709-4 0  9992,2 53896  53.2167 255.2412 0001461 107.2212 252.8940 15.08838591 72518,6917.885,95.438,540.76,538.739,0.0
53896.0,STARLINK-5037,PAYLOAD,2024-01-13 22:17:00,15.08849795,0.0001447,53.2169,251.3772,99.5652,260.5503,7.0031e-05,8.27e-06,0.0,0 STARLINK-5037,1 53896U 22119L   24013.92847523  .00000827  00000-0  70031-4 0  9998,2 53896  53.2169 251.3772 0001447  99.5652 260.5503 15.08849795 72644,6917.85,95.437,540.716,538.714,0.0
53896.0,STARLINK-5037,PAYLOAD,2024-01-14 18:57:01,15.08847397,0.0001479,53.2159,247.5064,105.5876,254.5279,0.00011765,1.585e-05,0.0,0 STARLINK-5037,1 53896U 22119L   24014.78959601  .00001585  00000-0  11765-3 0  9994,2 53896  53.2159 247.5064 0001479 105.5876 254.5279 15.08847397 72778,6917.858,95.437,540.746,538.7,0.0
53896.0,STARLINK-5037,PAYLOAD,2024-01-14 22:07:47,15.08853377,0.0001293,53.2152,246.9172,98.1163,261.9976,0.00025288,3.74e-05,0.0,0 STARLINK-5037,1 53896U 22119L   24014.92207392  .00003740  00000-0  25288-3 0  9993,2 53896  53.2152 246.9172 0001293  98.1163 261.9976 15.08853377 73215,6917.84,95.437,540.599,538.81,0.0
53896.0,STARLINK-5037,PAYLOAD,2024-01-15 18:47:48,15.08842161,0.0001393,53.2151,243.0486,108.4089,251.7055,-3.2861e-05,-8.11e-06,0.0,0 STARLINK-5037,1 53896U 22119L   24015.78319682 -.00000811  00000-0 -32861-4 0  9998,2 53896  53.2151 243.0486 0001393 108.4089 251.7055 15.08842161 72924,6917.874,95.437,540.702,538.775,0.0
53896.0,STARLINK-5037,PAYLOAD,2024-01-15 20:23:11,15.08841972,0.000143,53.2156,242.7513,110.2542,249.8604,-3.1308e-05,-7.86e-06,0.0,0 STARLINK-5037,1 53896U 22119L   24015.84943625 -.00000786  00000-0 -31308-4 0  9991,2 53896  53.2156 242.7513 0001430 110.2542 249.8604 15.08841972 73358,6917.874,95.437,540.729,538.75,0.0
53896.0,STARLINK-5037,PAYLOAD,2024-01-15 21:58:34,15.08841362,0.0001336,53.2153,242.4543,103.7456,256.3685,-5.6431e-05,-1.186e-05,0.0,0 STARLINK-5037,1 53896U 22119L   24015.91567621 -.00001186  00000-0 -56431-4 0  9996,2 53896  53.2153 242.4543 0001336 103.7456 256.3685 15.08841362 73367,6917.876,95.437,540.665,538.817,0.0
53896.0,STARLINK-5037,PAYLOAD,2024-01-16 21:49:21,15.08840929,0.0001321,53.2162,237.9941,108.7446,251.3689,5.4284e-05,5.76e-06,0.0,0 STARLINK-5037,1 53896U 22119L   24016.90927909  .00000576  00000-0  54284-4 0  9999,2 53896  53.2162 237.9941 0001321 108.7446 251.3689 15.08840929 73510,6917.878,95.437,540.656,538.829,0.0
53896.0,STARLINK-5037,PAYLOAD,2024-01-16 23:24:44,15.08840675,0.0001297,53.2163,237.6971,105.4286,254.685,9.5227e-05,1.228e-05,0.0,0 STARLINK-5037,1 53896U 22119L   24016.97551827  .00001228  00000-0  95227-4 0  9995,2 53896  53.2163 237.6971 0001297 105.4286 254.6850 15.08840675 73108,6917.878,95.438,540.641,538.846,0.0
53896.0,STARLINK-5037,PAYLOAD,2024-01-17 20:04:46,15.08831437,0.0001454,53.2176,233.8357,81.2243,278.8914,6.571e-05,7.58e-06,0.0,0 STARLINK-5037,1 53896U 22119L   24017.83665060  .00000758  00000-0  65710-4 0  9997,2 53896  53.2176 233.8357 0001454  81.2243 278.8914 15.08831437 73236,6917.907,95.438,540.777,538.766,0.0
53896.0,STARLINK-5037,PAYLOAD,2024-01-17 21:40:09,15.08830268,0.0001414,53.2171,233.5378,73.9886,286.1262,5.632e-05,6.08e-06,0.0,0 STARLINK-5037,1 53896U 22119L   24017.90289177  .00000608  00000-0  56320-4 0  9997,2 53896  53.2171 233.5378 0001414  73.9886 286.1262 15.08830268 73664,6917.91,95.438,540.753,538.797,0.0
53896.0,STARLINK-5037,PAYLOAD,2024-01-18 13:34:00,15.08838519,0.0001271,53.2156,230.5613,87.2245,272.8892,5.7358e-05,6.25e-06,0.0,0 STARLINK-5037,1 53896U 22119L   24018.56528880  .00000625  00000-0  57358-4 0  9998,2 53896  53.2156 230.5613 0001271  87.2245 272.8892 15.08838519 73763,6917.885,95.438,540.629,538.871,0.0
53896.0,STARLINK-5037,PAYLOAD,2024-01-18 19:55:33,15.08842561,0.0001325,53.2158,229.3746,78.2851,281.8289,9.1702e-05,1.172e-05,0.0,0 STARLINK-5037,1 53896U 22119L   24018.83024591  .00001172  00000-0  91702-4 0  9997,2 53896  53.2158 229.3746 0001325  78.2851 281.8289 15.08842561 73381,6917.873,95.437,540.654,538.821,0.0
53896.0,STARLINK-5037,PAYLOAD,2024-01-18 21:30:56,15.08843219,0.0001367,53.2161,229.0774,76.1663,283.9481,0.00010192,1.335e-05,0.0,0 STARLINK-5037,1 53896U 22119L   24018.89648550  .00001335  00000-0  10192-3 0  9994,2 53896  53.2161 229.0774 0001367  76.1663 283.9481 15.08843219 73813,6917.871,95.437,540.681,538.79,0.0
53896.0,STARLINK-5037,PAYLOAD,2024-01-19 13:24:47,15.08841238,0.0001387,53.2157,226.1032,87.4652,272.6499,0.00012735,1.739e-05,0.0,0 STARLINK-5037,1 53896U 22119L   24019.55888625  .00001739  00000-0  12735-3 0  9990,2 53896  53.2157 226.1032 0001387  87.4652 272.6499 15.08841238 73912,6917.877,95.437,540.701,538.782,0.0
53896.0,STARLINK-5037,PAYLOAD,2024-01-19 18:10:57,15.08842702,0.0001377,53.2157,225.2112,88.7009,271.4141,0.00013238,1.82e-05,0.0,0 STARLINK-5037,1 53896U 22119L   24019.75760507  .00001820  00000-0  13238-3 0  9990,2 53896  53.2157 225.2112 0001377  88.7009 271.4141 15.08842702 73941,6917.872,95.437,540.69,538.785,0.0
53896.0,STARLINK-5037,PAYLOAD,2024-01-19 22:57:06,15.08846006,0.0001416,53.2156,224.3188,88.3683,271.7471,0.00015597,2.196e-05,0.0,0 STARLINK-5037,1 53896U 22119L   24019.95632217  .00002196  00000-0  15597-3 0  9995,2 53896  53.2156 224.3188 0001416  88.3683 271.7471 15.08846006 73558,6917.862,95.437,540.707,538.747,0.0
53896.0,STARLINK-5037,PAYLOAD,2024-01-20 13:15:34,15.08843994,0.0001601,53.2152,221.6427,85.7272,274.3903,6.277e-05,7.11e-06,0.0,0 STARLINK-5037,1 53896U 22119L   24020.55248600  .00000711  00000-0  62770-4 0  9999,2 53896  53.2152 221.6427 0001601  85.7272 274.3903 15.08843994 74060,6917.868,95.437,540.841,538.626,0.0
